[{"OBJECT_NAME":"STARLINK-30953","OBJECT_ID":"2023-186U","EPOCH":"2026-03-08T23:49:57.390240","MEAN_MOTION":15.27577627,"ECCENTRICITY":8.588e-5,"INCLINATION":42.9984,"RA_OF_ASC_NODE":271.4328,"ARG_OF_PERICENTER":255.1282,"MEAN_ANOMALY":104.9475,"EPHEMERIS_TYPE":0,"CLASSIFICATION_TYPE":"U","NORAD_CAT_ID":58491,"ELEMENT_SET_NO":999,"REV_AT_EPOCH":12778,"BSTAR":-6.0877705e-5,"MEAN_MOTION_DOT":-1.936e-5,"MEAN_MOTION_DDOT":0},{"OBJECT_NAME":"OBJECT V","OBJECT_ID":"2025-155V","EPOCH":"2026-03-09T20:35:20.067360","MEAN_MOTION":15.27583301,"ECCENTRICITY":0.00080353,"INCLINATION":97.4485,"RA_OF_ASC_NODE":37.249,"ARG_OF_PERICENTER":152.8264,"MEAN_ANOMALY":207.3397,"EPHEMERIS_TYPE":0,"CLASSIFICATION_TYPE":"U","NORAD_CAT_ID":64895,"ELEMENT_SET_NO":999,"REV_AT_EPOCH":6557,"BSTAR":0.00051002361,"MEAN_MOTION_DOT":0.00013705,"MEAN_MOTION_DDOT":0}]
