STARLINK-30953          
1 58491U 23186U   26067.99302535 -.00001936  00000+0 -60878-4 0  9997
2 58491  42.9984 271.4328 0000858 255.1282 104.9475 15.27577627127782
2025-155V               
1 64895U 25155V   26068.85787115  .00013705  00000+0  51002-3 0  9990
2 64895  97.4485  37.2490 0008035 152.8264 207.3397 15.27583301 65579
